{
"type": "FeatureCollection",
"name": "DMTI2012_Subway",
"features": [
{ "type": "Feature", "properties": { "OWNER": "TTC", "CARTO": 13, "ACCESS1": null, "ACCESS2": null, "ACCESS3": null, "TRS_RTE": "Bloor-Danforth - TTC", "RTE_TYPE": "RT", "PROV": "ON", "US_RAILCO": null, "US_STP": null, "US_STATE": null, "CR": 0, "LRT": 0, "RT": 1, "CODE": 1376, "FEATURE": "TRANSIT LINE - TUNNEL", "RL_ID": 61249 }, "geometry": { "type": "LineString", "coordinates": [ [ -79.278409, 43.714984, 0.0 ], [ -79.278373, 43.71521, 0.0 ], [ -79.278323, 43.71537, 0.0 ], [ -79.278132, 43.7157761, 0.0 ], [ -79.277945, 43.716174, 0.0 ], [ -79.277036, 43.718195, 0.0 ], [ -79.275418, 43.721477, 0.0 ], [ -79.2751366, 43.7219733, 0.0 ], [ -79.27513, 43.721985, 0.0 ], [ -79.2743467, 43.7234632, 0.0 ], [ -79.274324, 43.723506, 0.0 ], [ -79.274151, 43.72376, 0.0 ], [ -79.270182, 43.728275, 0.0 ], [ -79.2698357, 43.7286052, 0.0 ], [ -79.269773, 43.728665, 0.0 ], [ -79.267733, 43.73076, 0.0 ], [ -79.266803, 43.731699, 0.0 ], [ -79.266466, 43.732011, 0.0 ], [ -79.266371, 43.732085, 0.0 ], [ -79.266203, 43.732138, 0.0 ], [ -79.266035, 43.732186, 0.0 ], [ -79.264915, 43.732466, 0.0 ] ] } },
{ "type": "Feature", "properties": { "OWNER": "TTC", "CARTO": 13, "ACCESS1": null, "ACCESS2": null, "ACCESS3": null, "TRS_RTE": "Scarborough RT - TTC", "RTE_TYPE": "RT", "PROV": "ON", "US_RAILCO": null, "US_STP": null, "US_STATE": null, "CR": 0, "LRT": 0, "RT": 1, "CODE": 961, "FEATURE": "TRANSIT LINE", "RL_ID": 61250 }, "geometry": { "type": "LineString", "coordinates": [ [ -79.270024, 43.750021, 0.0 ], [ -79.270093, 43.750534, 0.0 ], [ -79.270188, 43.750932, 0.0 ], [ -79.270388, 43.751605, 0.0 ], [ -79.270658, 43.75226, 0.0 ] ] } },
{ "type": "Feature", "properties": { "OWNER": "TTC", "CARTO": 13, "ACCESS1": null, "ACCESS2": null, "ACCESS3": null, "TRS_RTE": "Scarborough RT - TTC", "RTE_TYPE": "RT", "PROV": "ON", "US_RAILCO": null, "US_STP": null, "US_STATE": null, "CR": 0, "LRT": 0, "RT": 1, "CODE": 961, "FEATURE": "TRANSIT LINE", "RL_ID": 61256 }, "geometry": { "type": "LineString", "coordinates": [ [ -79.270658, 43.75226, 0.0 ], [ -79.275201, 43.764051, 0.0 ], [ -79.275782, 43.765437, 0.0 ], [ -79.276286, 43.766897, 0.0 ], [ -79.276482, 43.767465, 0.0 ], [ -79.276652, 43.767906, 0.0 ], [ -79.276704, 43.76812, 0.0 ], [ -79.276715, 43.7682, 0.0 ] ] } },
{ "type": "Feature", "properties": { "OWNER": "TTC", "CARTO": 13, "ACCESS1": null, "ACCESS2": null, "ACCESS3": null, "TRS_RTE": "Bloor-Danforth - TTC", "RTE_TYPE": "RT", "PROV": "ON", "US_RAILCO": null, "US_STP": null, "US_STATE": null, "CR": 0, "LRT": 0, "RT": 1, "CODE": 961, "FEATURE": "TRANSIT LINE", "RL_ID": 61282 }, "geometry": { "type": "LineString", "coordinates": [ [ -79.291087, 43.69388, 0.0 ], [ -79.290796, 43.694074, 0.0 ], [ -79.289917, 43.694457, 0.0 ], [ -79.288536, 43.694979, 0.0 ], [ -79.285237, 43.696251, 0.0 ] ] } },
{ "type": "Feature", "properties": { "OWNER": "TTC", "CARTO": 13, "ACCESS1": null, "ACCESS2": null, "ACCESS3": null, "TRS_RTE": "Bloor-Danforth - TTC", "RTE_TYPE": "RT", "PROV": "ON", "US_RAILCO": null, "US_STP": null, "US_STATE": null, "CR": 0, "LRT": 0, "RT": 1, "CODE": 91, "FEATURE": "TRANSIT LINE - BRIDGE", "RL_ID": 61283 }, "geometry": { "type": "LineString", "coordinates": [ [ -79.285237, 43.696251, 0.0 ], [ -79.284923, 43.696371, 0.0 ] ] } },
{ "type": "Feature", "properties": { "OWNER": "TTC", "CARTO": 13, "ACCESS1": null, "ACCESS2": null, "ACCESS3": null, "TRS_RTE": "Bloor-Danforth - TTC", "RTE_TYPE": "RT", "PROV": "ON", "US_RAILCO": null, "US_STP": null, "US_STATE": null, "CR": 0, "LRT": 0, "RT": 1, "CODE": 961, "FEATURE": "TRANSIT LINE", "RL_ID": 61284 }, "geometry": { "type": "LineString", "coordinates": [ [ -79.284923, 43.696371, 0.0 ], [ -79.284259, 43.696623, 0.0 ], [ -79.283062, 43.697227, 0.0 ], [ -79.282454, 43.697677, 0.0 ], [ -79.282263, 43.697836, 0.0 ], [ -79.281931, 43.698182, 0.0 ], [ -79.281245, 43.699153, 0.0 ], [ -79.280934, 43.700049, 0.0 ], [ -79.279572, 43.708204, 0.0 ], [ -79.278934, 43.712071, 0.0 ], [ -79.278874, 43.712367, 0.0 ] ] } },
{ "type": "Feature", "properties": { "OWNER": "TTC", "CARTO": 13, "ACCESS1": null, "ACCESS2": null, "ACCESS3": null, "TRS_RTE": "Bloor-Danforth - TTC", "RTE_TYPE": "RT", "PROV": "ON", "US_RAILCO": null, "US_STP": null, "US_STATE": null, "CR": 0, "LRT": 0, "RT": 1, "CODE": 91, "FEATURE": "TRANSIT LINE - BRIDGE", "RL_ID": 61285 }, "geometry": { "type": "LineString", "coordinates": [ [ -79.278874, 43.712367, 0.0 ], [ -79.278797, 43.71272, 0.0 ] ] } },
{ "type": "Feature", "properties": { "OWNER": "TTC", "CARTO": 13, "ACCESS1": null, "ACCESS2": null, "ACCESS3": null, "TRS_RTE": "Bloor-Danforth - TTC", "RTE_TYPE": "RT", "PROV": "ON", "US_RAILCO": null, "US_STP": null, "US_STATE": null, "CR": 0, "LRT": 0, "RT": 1, "CODE": 961, "FEATURE": "TRANSIT LINE", "RL_ID": 61286 }, "geometry": { "type": "LineString", "coordinates": [ [ -79.278797, 43.71272, 0.0 ], [ -79.278767, 43.712852, 0.0 ], [ -79.278682, 43.713355, 0.0 ], [ -79.278409, 43.714984, 0.0 ] ] } },
{ "type": "Feature", "properties": { "OWNER": "TTC", "CARTO": 13, "ACCESS1": null, "ACCESS2": null, "ACCESS3": null, "TRS_RTE": "Scarborough RT - TTC", "RTE_TYPE": "RT", "PROV": "ON", "US_RAILCO": null, "US_STP": null, "US_STATE": null, "CR": 0, "LRT": 0, "RT": 1, "CODE": 91, "FEATURE": "TRANSIT LINE - BRIDGE", "RL_ID": 61329 }, "geometry": { "type": "LineString", "coordinates": [ [ -79.262483, 43.772988, 0.0 ], [ -79.262003, 43.773142, 0.0 ], [ -79.261064, 43.773444, 0.0 ], [ -79.259219, 43.774091, 0.0 ], [ -79.258418, 43.774295, 0.0 ], [ -79.257903, 43.774431, 0.0 ], [ -79.257353, 43.774576, 0.0 ], [ -79.256879, 43.774649, 0.0 ], [ -79.254809, 43.774897, 0.0 ], [ -79.253626, 43.774996, 0.0 ], [ -79.253042, 43.774987, 0.0 ], [ -79.252001, 43.774908, 0.0 ], [ -79.251692, 43.774885, 0.0 ], [ -79.251232, 43.774851, 0.0 ], [ -79.25078, 43.774819, 0.0 ], [ -79.250642, 43.774809, 0.0 ], [ -79.24991, 43.774755, 0.0 ] ] } },
{ "type": "Feature", "properties": { "OWNER": "TTC", "CARTO": 13, "ACCESS1": null, "ACCESS2": null, "ACCESS3": null, "TRS_RTE": "Scarborough RT - TTC", "RTE_TYPE": "RT", "PROV": "ON", "US_RAILCO": null, "US_STP": null, "US_STATE": null, "CR": 0, "LRT": 0, "RT": 1, "CODE": 961, "FEATURE": "TRANSIT LINE", "RL_ID": 61330 }, "geometry": { "type": "LineString", "coordinates": [ [ -79.245488, 43.775732, 0.0 ], [ -79.244914, 43.776361, 0.0 ] ] } },
{ "type": "Feature", "properties": { "OWNER": "TTC", "CARTO": 13, "ACCESS1": null, "ACCESS2": null, "ACCESS3": null, "TRS_RTE": "Scarborough RT - TTC", "RTE_TYPE": "RT", "PROV": "ON", "US_RAILCO": null, "US_STP": null, "US_STATE": null, "CR": 0, "LRT": 0, "RT": 1, "CODE": 961, "FEATURE": "TRANSIT LINE", "RL_ID": 61331 }, "geometry": { "type": "LineString", "coordinates": [ [ -79.245677, 43.775453, 0.0 ], [ -79.245639, 43.775507, 0.0 ], [ -79.245578, 43.775602, 0.0 ], [ -79.245488, 43.775732, 0.0 ] ] } },
{ "type": "Feature", "properties": { "OWNER": "TTC", "CARTO": 13, "ACCESS1": null, "ACCESS2": null, "ACCESS3": null, "TRS_RTE": "Scarborough RT - TTC", "RTE_TYPE": "RT", "PROV": "ON", "US_RAILCO": null, "US_STP": null, "US_STATE": null, "CR": 0, "LRT": 0, "RT": 1, "CODE": 961, "FEATURE": "TRANSIT LINE", "RL_ID": 61332 }, "geometry": { "type": "LineString", "coordinates": [ [ -79.248302, 43.774648, 0.0 ], [ -79.24813, 43.774653, 0.0 ], [ -79.248012, 43.77466, 0.0 ], [ -79.247917, 43.774676, 0.0 ], [ -79.247727, 43.774717, 0.0 ], [ -79.246243, 43.775044, 0.0 ], [ -79.246157, 43.775062, 0.0 ], [ -79.246084, 43.775081, 0.0 ], [ -79.246006, 43.775116, 0.0 ], [ -79.245971, 43.775148, 0.0 ], [ -79.245843, 43.775262, 0.0 ] ] } },
{ "type": "Feature", "properties": { "OWNER": "TTC", "CARTO": 13, "ACCESS1": null, "ACCESS2": null, "ACCESS3": null, "TRS_RTE": "Scarborough RT - TTC", "RTE_TYPE": "RT", "PROV": "ON", "US_RAILCO": null, "US_STP": null, "US_STATE": null, "CR": 0, "LRT": 0, "RT": 1, "CODE": 961, "FEATURE": "TRANSIT LINE", "RL_ID": 61333 }, "geometry": { "type": "LineString", "coordinates": [ [ -79.276369, 43.769155, 0.0 ], [ -79.276125, 43.769353, 0.0 ], [ -79.275801, 43.769543, 0.0 ] ] } },
{ "type": "Feature", "properties": { "OWNER": "TTC", "CARTO": 13, "ACCESS1": null, "ACCESS2": null, "ACCESS3": null, "TRS_RTE": "Scarborough RT - TTC", "RTE_TYPE": "RT", "PROV": "ON", "US_RAILCO": null, "US_STP": null, "US_STATE": null, "CR": 0, "LRT": 0, "RT": 1, "CODE": 961, "FEATURE": "TRANSIT LINE", "RL_ID": 61334 }, "geometry": { "type": "LineString", "coordinates": [ [ -79.249149, 43.774702, 0.0 ], [ -79.248822, 43.774676, 0.0 ], [ -79.248584, 43.774664, 0.0 ], [ -79.248302, 43.774648, 0.0 ] ] } },
{ "type": "Feature", "properties": { "OWNER": "TTC", "CARTO": 13, "ACCESS1": null, "ACCESS2": null, "ACCESS3": null, "TRS_RTE": "Scarborough RT - TTC", "RTE_TYPE": "RT", "PROV": "ON", "US_RAILCO": null, "US_STP": null, "US_STATE": null, "CR": 0, "LRT": 0, "RT": 1, "CODE": 961, "FEATURE": "TRANSIT LINE", "RL_ID": 61335 }, "geometry": { "type": "LineString", "coordinates": [ [ -79.245843, 43.775262, 0.0 ], [ -79.245677, 43.775453, 0.0 ] ] } },
{ "type": "Feature", "properties": { "OWNER": "TTC", "CARTO": 13, "ACCESS1": null, "ACCESS2": null, "ACCESS3": null, "TRS_RTE": "Scarborough RT - TTC", "RTE_TYPE": "RT", "PROV": "ON", "US_RAILCO": null, "US_STP": null, "US_STATE": null, "CR": 0, "LRT": 0, "RT": 1, "CODE": 961, "FEATURE": "TRANSIT LINE", "RL_ID": 61336 }, "geometry": { "type": "LineString", "coordinates": [ [ -79.275801, 43.769543, 0.0 ], [ -79.275524, 43.769656, 0.0 ], [ -79.274874, 43.769809, 0.0 ], [ -79.274647, 43.769858, 0.0 ] ] } },
{ "type": "Feature", "properties": { "OWNER": "TTC", "CARTO": 13, "ACCESS1": null, "ACCESS2": null, "ACCESS3": null, "TRS_RTE": "Scarborough RT - TTC", "RTE_TYPE": "RT", "PROV": "ON", "US_RAILCO": null, "US_STP": null, "US_STATE": null, "CR": 0, "LRT": 0, "RT": 1, "CODE": 1376, "FEATURE": "TRANSIT LINE - TUNNEL", "RL_ID": 61337 }, "geometry": { "type": "LineString", "coordinates": [ [ -79.276715, 43.7682, 0.0 ], [ -79.276723, 43.768257, 0.0 ], [ -79.276727, 43.768404, 0.0 ], [ -79.2767113, 43.7684951, 0.0 ], [ -79.276708, 43.768514, 0.0 ], [ -79.2766866, 43.7685844, 0.0 ], [ -79.276647, 43.768715, 0.0 ], [ -79.276589, 43.768852, 0.0 ], [ -79.2765624, 43.7689004, 0.0 ], [ -79.276527, 43.768965, 0.0 ], [ -79.276462, 43.769057, 0.0 ], [ -79.276369, 43.769155, 0.0 ] ] } },
{ "type": "Feature", "properties": { "OWNER": "TTC", "CARTO": 13, "ACCESS1": null, "ACCESS2": null, "ACCESS3": null, "TRS_RTE": "Scarborough RT - TTC", "RTE_TYPE": "RT", "PROV": "ON", "US_RAILCO": null, "US_STP": null, "US_STATE": null, "CR": 0, "LRT": 0, "RT": 1, "CODE": 961, "FEATURE": "TRANSIT LINE", "RL_ID": 61338 }, "geometry": { "type": "LineString", "coordinates": [ [ -79.274647, 43.769858, 0.0 ], [ -79.272411, 43.770339, 0.0 ] ] } },
{ "type": "Feature", "properties": { "OWNER": "TTC", "CARTO": 13, "ACCESS1": null, "ACCESS2": null, "ACCESS3": null, "TRS_RTE": "Scarborough RT - TTC", "RTE_TYPE": "RT", "PROV": "ON", "US_RAILCO": null, "US_STP": null, "US_STATE": null, "CR": 0, "LRT": 0, "RT": 1, "CODE": 91, "FEATURE": "TRANSIT LINE - BRIDGE", "RL_ID": 61339 }, "geometry": { "type": "LineString", "coordinates": [ [ -79.272411, 43.770339, 0.0 ], [ -79.27196, 43.770432, 0.0 ], [ -79.271648, 43.770496, 0.0 ] ] } },
{ "type": "Feature", "properties": { "OWNER": "TTC", "CARTO": 13, "ACCESS1": null, "ACCESS2": null, "ACCESS3": null, "TRS_RTE": "Scarborough RT - TTC", "RTE_TYPE": "RT", "PROV": "ON", "US_RAILCO": null, "US_STP": null, "US_STATE": null, "CR": 0, "LRT": 0, "RT": 1, "CODE": 961, "FEATURE": "TRANSIT LINE", "RL_ID": 61340 }, "geometry": { "type": "LineString", "coordinates": [ [ -79.271648, 43.770496, 0.0 ], [ -79.271436, 43.77054, 0.0 ], [ -79.269723, 43.770901, 0.0 ], [ -79.268661, 43.771128, 0.0 ], [ -79.267997, 43.771307, 0.0 ] ] } },
{ "type": "Feature", "properties": { "OWNER": "TTC", "CARTO": 13, "ACCESS1": null, "ACCESS2": null, "ACCESS3": null, "TRS_RTE": "Scarborough RT - TTC", "RTE_TYPE": "RT", "PROV": "ON", "US_RAILCO": null, "US_STP": null, "US_STATE": null, "CR": 0, "LRT": 0, "RT": 1, "CODE": 91, "FEATURE": "TRANSIT LINE - BRIDGE", "RL_ID": 61341 }, "geometry": { "type": "LineString", "coordinates": [ [ -79.267997, 43.771307, 0.0 ], [ -79.267643, 43.771433, 0.0 ] ] } },
{ "type": "Feature", "properties": { "OWNER": "TTC", "CARTO": 13, "ACCESS1": null, "ACCESS2": null, "ACCESS3": null, "TRS_RTE": "Scarborough RT - TTC", "RTE_TYPE": "RT", "PROV": "ON", "US_RAILCO": null, "US_STP": null, "US_STATE": null, "CR": 0, "LRT": 0, "RT": 1, "CODE": 961, "FEATURE": "TRANSIT LINE", "RL_ID": 61342 }, "geometry": { "type": "LineString", "coordinates": [ [ -79.267643, 43.771433, 0.0 ], [ -79.267194, 43.771592, 0.0 ], [ -79.266728, 43.771783, 0.0 ], [ -79.265763, 43.772102, 0.0 ], [ -79.263899, 43.772532, 0.0 ], [ -79.262483, 43.772988, 0.0 ] ] } },
{ "type": "Feature", "properties": { "OWNER": "TTC", "CARTO": 13, "ACCESS1": null, "ACCESS2": null, "ACCESS3": null, "TRS_RTE": "Scarborough RT - TTC", "RTE_TYPE": "RT", "PROV": "ON", "US_RAILCO": null, "US_STP": null, "US_STATE": null, "CR": 0, "LRT": 0, "RT": 1, "CODE": 961, "FEATURE": "TRANSIT LINE", "RL_ID": 61343 }, "geometry": { "type": "LineString", "coordinates": [ [ -79.24991, 43.774755, 0.0 ], [ -79.249149, 43.774702, 0.0 ] ] } },
{ "type": "Feature", "properties": { "OWNER": "TTC", "CARTO": 13, "ACCESS1": null, "ACCESS2": null, "ACCESS3": null, "TRS_RTE": "Bloor-Danforth - TTC", "RTE_TYPE": "RT", "PROV": "ON", "US_RAILCO": null, "US_STP": null, "US_STATE": null, "CR": 0, "LRT": 0, "RT": 1, "CODE": 961, "FEATURE": "TRANSIT LINE", "RL_ID": 61266 }, "geometry": { "type": "LineString", "coordinates": [ [ -79.457759, 43.655945, 0.0 ], [ -79.458486, 43.655786, 0.0 ] ] } },
{ "type": "Feature", "properties": { "OWNER": "TTC", "CARTO": 13, "ACCESS1": null, "ACCESS2": null, "ACCESS3": null, "TRS_RTE": "Yonge-University-Spadina - TTC", "RTE_TYPE": "RT", "PROV": "ON", "US_RAILCO": null, "US_STP": null, "US_STATE": null, "CR": 0, "LRT": 0, "RT": 1, "CODE": 91, "FEATURE": "TRANSIT LINE - BRIDGE", "RL_ID": 47480 }, "geometry": { "type": "LineString", "coordinates": [ [ -79.4472, 43.7238, 0.0 ], [ -79.447037, 43.723365, 0.0 ] ] } },
{ "type": "Feature", "properties": { "OWNER": "TTC", "CARTO": 13, "ACCESS1": null, "ACCESS2": null, "ACCESS3": null, "TRS_RTE": "Yonge-University-Spadina - TTC", "RTE_TYPE": "RT", "PROV": "ON", "US_RAILCO": null, "US_STP": null, "US_STATE": null, "CR": 0, "LRT": 0, "RT": 1, "CODE": 961, "FEATURE": "TRANSIT LINE", "RL_ID": 61244 }, "geometry": { "type": "LineString", "coordinates": [ [ -79.448698, 43.729258, 0.0 ], [ -79.448322, 43.727271, 0.0 ], [ -79.448264, 43.726982, 0.0 ], [ -79.448179, 43.726585, 0.0 ], [ -79.448121, 43.726336, 0.0 ], [ -79.448026, 43.726037, 0.0 ], [ -79.447774, 43.725322, 0.0 ], [ -79.447471, 43.724521, 0.0 ], [ -79.4472, 43.7238, 0.0 ] ] } },
{ "type": "Feature", "properties": { "OWNER": "TTC", "CARTO": 13, "ACCESS1": null, "ACCESS2": null, "ACCESS3": null, "TRS_RTE": "Yonge-University-Spadina - TTC", "RTE_TYPE": "RT", "PROV": "ON", "US_RAILCO": null, "US_STP": null, "US_STATE": null, "CR": 0, "LRT": 0, "RT": 1, "CODE": 1376, "FEATURE": "TRANSIT LINE - TUNNEL", "RL_ID": 61240 }, "geometry": { "type": "LineString", "coordinates": [ [ -79.39501, 43.668876, 0.0 ], [ -79.395023, 43.668828, 0.0 ], [ -79.395089, 43.668801, 0.0 ], [ -79.395181, 43.668781, 0.0 ], [ -79.395539, 43.668702, 0.0 ], [ -79.396072, 43.668582, 0.0 ], [ -79.396705, 43.668443, 0.0 ], [ -79.397403, 43.668277, 0.0 ], [ -79.398, 43.668018, 0.0 ], [ -79.398161, 43.667935, 0.0 ], [ -79.398281, 43.667902, 0.0 ] ] } },
{ "type": "Feature", "properties": { "OWNER": "TTC", "CARTO": 13, "ACCESS1": null, "ACCESS2": null, "ACCESS3": null, "TRS_RTE": "Yonge-University-Spadina - TTC", "RTE_TYPE": "RT", "PROV": "ON", "US_RAILCO": null, "US_STP": null, "US_STATE": null, "CR": 0, "LRT": 0, "RT": 1, "CODE": 1376, "FEATURE": "TRANSIT LINE - TUNNEL", "RL_ID": 61241 }, "geometry": { "type": "LineString", "coordinates": [ [ -79.410929, 43.761541, 0.0 ], [ -79.411138, 43.762351, 0.0 ], [ -79.411368, 43.763311, 0.0 ], [ -79.411551, 43.764003, 0.0 ], [ -79.411632, 43.764316, 0.0 ], [ -79.411736, 43.764716, 0.0 ], [ -79.411973, 43.765679, 0.0 ], [ -79.412195, 43.766577, 0.0 ], [ -79.412429, 43.767478, 0.0 ], [ -79.412646, 43.768398, 0.0 ], [ -79.412872, 43.769287, 0.0 ], [ -79.413103, 43.770155, 0.0 ], [ -79.413329, 43.771037, 0.0 ], [ -79.413572, 43.772018, 0.0 ], [ -79.41364, 43.77228, 0.0 ], [ -79.413811, 43.772996, 0.0 ], [ -79.414015, 43.773821, 0.0 ], [ -79.414373, 43.775164, 0.0 ], [ -79.414761, 43.776604, 0.0 ], [ -79.41485, 43.77696, 0.0 ], [ -79.415102, 43.777935, 0.0 ], [ -79.415289, 43.778723, 0.0 ], [ -79.415563, 43.779817, 0.0 ], [ -79.415726, 43.780497, 0.0 ], [ -79.415858, 43.781092, 0.0 ] ] } },
{ "type": "Feature", "properties": { "OWNER": "TTC", "CARTO": 13, "ACCESS1": null, "ACCESS2": null, "ACCESS3": null, "TRS_RTE": "Sheppard - TTC", "RTE_TYPE": "RT", "PROV": "ON", "US_RAILCO": null, "US_STP": null, "US_STATE": null, "CR": 0, "LRT": 0, "RT": 1, "CODE": 1376, "FEATURE": "TRANSIT LINE - TUNNEL", "RL_ID": 61242 }, "geometry": { "type": "LineString", "coordinates": [ [ -79.410929, 43.761541, 0.0 ], [ -79.408227, 43.762133, 0.0 ], [ -79.407167, 43.762371, 0.0 ], [ -79.407004, 43.762403, 0.0 ], [ -79.404689, 43.762914, 0.0 ], [ -79.402858, 43.763325, 0.0 ], [ -79.402289, 43.763446, 0.0 ], [ -79.399665, 43.764032, 0.0 ], [ -79.39704, 43.764632, 0.0 ], [ -79.395173, 43.765045, 0.0 ], [ -79.394699, 43.765154, 0.0 ], [ -79.39312, 43.765493, 0.0 ], [ -79.39204, 43.765722, 0.0 ], [ -79.390046, 43.766174, 0.0 ], [ -79.388844, 43.766432, 0.0 ], [ -79.388052, 43.766689, 0.0 ], [ -79.386849, 43.767042, 0.0 ], [ -79.386126, 43.767212, 0.0 ], [ -79.384982, 43.76747, 0.0 ], [ -79.383125, 43.767847, 0.0 ], [ -79.381849, 43.768137, 0.0 ], [ -79.38117, 43.768281, 0.0 ], [ -79.380344, 43.768451, 0.0 ], [ -79.378301, 43.768871, 0.0 ], [ -79.376668, 43.769185, 0.0 ], [ -79.375833, 43.769365, 0.0 ], [ -79.374195, 43.769704, 0.0 ], [ -79.373661, 43.769822, 0.0 ], [ -79.371365, 43.770328, 0.0 ], [ -79.371287, 43.770346, 0.0 ], [ -79.369596, 43.770717, 0.0 ], [ -79.368305, 43.770998, 0.0 ] ] } },
{ "type": "Feature", "properties": { "OWNER": "TTC", "CARTO": 13, "ACCESS1": null, "ACCESS2": null, "ACCESS3": null, "TRS_RTE": "Yonge-University-Spadina - TTC", "RTE_TYPE": "RT", "PROV": "ON", "US_RAILCO": null, "US_STP": null, "US_STATE": null, "CR": 0, "LRT": 0, "RT": 1, "CODE": 1376, "FEATURE": "TRANSIT LINE - TUNNEL", "RL_ID": 61243 }, "geometry": { "type": "LineString", "coordinates": [ [ -79.394954, 43.66887, 0.0 ], [ -79.394716, 43.668844, 0.0 ], [ -79.394348, 43.668727, 0.0 ], [ -79.39423, 43.668653, 0.0 ], [ -79.394113, 43.668568, 0.0 ], [ -79.393995, 43.668376, 0.0 ], [ -79.393928, 43.668223, 0.0 ], [ -79.393538, 43.66726, 0.0 ], [ -79.393049, 43.666055, 0.0 ], [ -79.392793, 43.665522, 0.0 ], [ -79.392494, 43.66522, 0.0 ], [ -79.391837, 43.664744, 0.0 ], [ -79.391419, 43.664355, 0.0 ], [ -79.39106, 43.663837, 0.0 ], [ -79.390821, 43.663339, 0.0 ], [ -79.390254, 43.661978, 0.0 ], [ -79.390283, 43.661611, 0.0 ], [ -79.390463, 43.661286, 0.0 ], [ -79.390821, 43.660984, 0.0 ], [ -79.390881, 43.660833, 0.0 ], [ -79.390776, 43.660603, 0.0 ], [ -79.390451, 43.659888, 0.0 ], [ -79.389981, 43.658793, 0.0 ], [ -79.389459, 43.657584, 0.0 ], [ -79.388962, 43.656412, 0.0 ], [ -79.388597, 43.655506, 0.0 ], [ -79.388336, 43.654844, 0.0 ], [ -79.387553, 43.653125, 0.0 ], [ -79.386586, 43.650877, 0.0 ], [ -79.386247, 43.650122, 0.0 ], [ -79.385485, 43.648877, 0.0 ], [ -79.385129, 43.64826, 0.0 ], [ -79.384786, 43.647661, 0.0 ], [ -79.384051, 43.646381, 0.0 ], [ -79.383743, 43.645854, 0.0 ], [ -79.38344, 43.645589, 0.0 ], [ -79.383096, 43.645494, 0.0 ], [ -79.382824, 43.645463, 0.0 ], [ -79.382565, 43.645397, 0.0 ], [ -79.382419, 43.645313, 0.0 ], [ -79.37994, 43.645819, 0.0 ], [ -79.379115, 43.645987, 0.0 ], [ -79.378254, 43.646182, 0.0 ], [ -79.377841, 43.64632, 0.0 ], [ -79.377388, 43.646557, 0.0 ], [ -79.376908, 43.646901, 0.0 ], [ -79.377279, 43.647852, 0.0 ], [ -79.377546, 43.648522, 0.0 ], [ -79.377838, 43.649201, 0.0 ], [ -79.378389, 43.650398, 0.0 ], [ -79.378668, 43.651077, 0.0 ], [ -79.378924, 43.651693, 0.0 ], [ -79.379239, 43.652426, 0.0 ], [ -79.379938, 43.654093, 0.0 ], [ -79.38065, 43.655778, 0.0 ], [ -79.380882, 43.656339, 0.0 ], [ -79.381174, 43.657028, 0.0 ], [ -79.381361, 43.657463, 0.0 ], [ -79.381559, 43.657943, 0.0 ], [ -79.381898, 43.658704, 0.0 ], [ -79.382085, 43.659121, 0.0 ], [ -79.383104, 43.661377, 0.0 ], [ -79.383371, 43.662056, 0.0 ], [ -79.383305, 43.662202, 0.0 ], [ -79.383236, 43.662338, 0.0 ], [ -79.383029, 43.662588, 0.0 ], [ -79.382794, 43.662736, 0.0 ], [ -79.382676, 43.662863, 0.0 ], [ -79.382735, 43.663054, 0.0 ], [ -79.382853, 43.663394, 0.0 ], [ -79.383381, 43.664687, 0.0 ], [ -79.383594, 43.665193, 0.0 ], [ -79.383792, 43.665663, 0.0 ], [ -79.38482, 43.66823, 0.0 ], [ -79.38554, 43.670493, 0.0 ], [ -79.385544, 43.670506, 0.0 ] ] } },
{ "type": "Feature", "properties": { "OWNER": "TTC", "CARTO": 13, "ACCESS1": null, "ACCESS2": null, "ACCESS3": null, "TRS_RTE": "Yonge-University-Spadina - TTC", "RTE_TYPE": "RT", "PROV": "ON", "US_RAILCO": null, "US_STP": null, "US_STATE": null, "CR": 0, "LRT": 0, "RT": 1, "CODE": 961, "FEATURE": "TRANSIT LINE", "RL_ID": 61236 }, "geometry": { "type": "LineString", "coordinates": [ [ -79.39501, 43.668876, 0.0 ], [ -79.394954, 43.66887, 0.0 ] ] } },
{ "type": "Feature", "properties": { "OWNER": "TTC", "CARTO": 13, "ACCESS1": null, "ACCESS2": null, "ACCESS3": null, "TRS_RTE": "Bloor-Danforth - TTC", "RTE_TYPE": "RT", "PROV": "ON", "US_RAILCO": null, "US_STP": null, "US_STATE": null, "CR": 0, "LRT": 0, "RT": 1, "CODE": 1376, "FEATURE": "TRANSIT LINE - TUNNEL", "RL_ID": 61237 }, "geometry": { "type": "LineString", "coordinates": [ [ -79.398281, 43.667902, 0.0 ], [ -79.39856, 43.667938, 0.0 ], [ -79.398845, 43.667945, 0.0 ], [ -79.399249, 43.667918, 0.0 ], [ -79.399937, 43.667825, 0.0 ], [ -79.401599, 43.667446, 0.0 ], [ -79.402793, 43.667174, 0.0 ], [ -79.403078, 43.667094, 0.0 ], [ -79.403509, 43.667058, 0.0 ] ] } },
{ "type": "Feature", "properties": { "OWNER": "TTC", "CARTO": 13, "ACCESS1": null, "ACCESS2": null, "ACCESS3": null, "TRS_RTE": "Yonge-University-Spadina - TTC", "RTE_TYPE": "RT", "PROV": "ON", "US_RAILCO": null, "US_STP": null, "US_STATE": null, "CR": 0, "LRT": 0, "RT": 1, "CODE": 1376, "FEATURE": "TRANSIT LINE - TUNNEL", "RL_ID": 61238 }, "geometry": { "type": "LineString", "coordinates": [ [ -79.403509, 43.667058, 0.0 ], [ -79.403348, 43.667033, 0.0 ], [ -79.403052, 43.667048, 0.0 ], [ -79.402807, 43.667112, 0.0 ], [ -79.401625, 43.667386, 0.0 ], [ -79.399953, 43.667757, 0.0 ], [ -79.399129, 43.66787, 0.0 ], [ -79.398281, 43.667902, 0.0 ] ] } },
{ "type": "Feature", "properties": { "OWNER": "TTC", "CARTO": 13, "ACCESS1": null, "ACCESS2": null, "ACCESS3": null, "TRS_RTE": "Bloor-Danforth - TTC", "RTE_TYPE": "RT", "PROV": "ON", "US_RAILCO": null, "US_STP": null, "US_STATE": null, "CR": 0, "LRT": 0, "RT": 1, "CODE": 1376, "FEATURE": "TRANSIT LINE - TUNNEL", "RL_ID": 61239 }, "geometry": { "type": "LineString", "coordinates": [ [ -79.398281, 43.667902, 0.0 ], [ -79.398092, 43.668029, 0.0 ], [ -79.397826, 43.668167, 0.0 ], [ -79.397434, 43.668338, 0.0 ], [ -79.395739, 43.668725, 0.0 ], [ -79.39501, 43.668876, 0.0 ] ] } },
{ "type": "Feature", "properties": { "OWNER": "TTC", "CARTO": 13, "ACCESS1": null, "ACCESS2": null, "ACCESS3": null, "TRS_RTE": "Yonge-University-Spadina - TTC", "RTE_TYPE": "RT", "PROV": "ON", "US_RAILCO": null, "US_STP": null, "US_STATE": null, "CR": 0, "LRT": 0, "RT": 1, "CODE": 961, "FEATURE": "TRANSIT LINE", "RL_ID": 61369 }, "geometry": { "type": "LineString", "coordinates": [ [ -79.447037, 43.723365, 0.0 ], [ -79.446918, 43.723067, 0.0 ], [ -79.44409, 43.715964, 0.0 ], [ -79.443962, 43.7156, 0.0 ], [ -79.443477, 43.714218, 0.0 ], [ -79.443188, 43.713395, 0.0 ], [ -79.442097, 43.710949, 0.0 ], [ -79.441824, 43.710477, 0.0 ], [ -79.441382, 43.709814, 0.0 ], [ -79.440617, 43.70865, 0.0 ], [ -79.440128, 43.707906, 0.0 ], [ -79.438899, 43.706008, 0.0 ], [ -79.438531, 43.705354, 0.0 ], [ -79.437525, 43.702999, 0.0 ], [ -79.436663, 43.700809, 0.0 ] ] } },
{ "type": "Feature", "properties": { "OWNER": "TTC", "CARTO": 13, "ACCESS1": null, "ACCESS2": null, "ACCESS3": null, "TRS_RTE": "Bloor-Danforth - TTC", "RTE_TYPE": "RT", "PROV": "ON", "US_RAILCO": null, "US_STP": null, "US_STATE": null, "CR": 0, "LRT": 0, "RT": 1, "CODE": 1376, "FEATURE": "TRANSIT LINE - TUNNEL", "RL_ID": 61245 }, "geometry": { "type": "LineString", "coordinates": [ [ -79.492929, 43.649294, 0.0 ], [ -79.493912, 43.649646, 0.0 ], [ -79.494472, 43.649845, 0.0 ], [ -79.495365, 43.650158, 0.0 ], [ -79.495746, 43.650312, 0.0 ], [ -79.496087, 43.65045, 0.0 ], [ -79.496411, 43.650542, 0.0 ], [ -79.496842, 43.650626, 0.0 ], [ -79.497783, 43.650734, 0.0 ], [ -79.498192, 43.650754, 0.0 ], [ -79.498793, 43.650784, 0.0 ], [ -79.499202, 43.650813, 0.0 ], [ -79.499584, 43.650744, 0.0 ], [ -79.500021, 43.650626, 0.0 ], [ -79.500252, 43.650547, 0.0 ], [ -79.502353, 43.65027, 0.0 ], [ -79.503527, 43.650033, 0.0 ], [ -79.504645, 43.649806, 0.0 ], [ -79.505832, 43.64956, 0.0 ], [ -79.50691, 43.649313, 0.0 ], [ -79.508084, 43.649046, 0.0 ], [ -79.509216, 43.6488, 0.0 ], [ -79.509697, 43.648698, 0.0 ], [ -79.510335, 43.648563, 0.0 ], [ -79.511705, 43.64825, 0.0 ], [ -79.514099, 43.647714, 0.0 ], [ -79.514909, 43.647535, 0.0 ], [ -79.515992, 43.647289, 0.0 ] ] } },
{ "type": "Feature", "properties": { "OWNER": "TTC", "CARTO": 13, "ACCESS1": null, "ACCESS2": null, "ACCESS3": null, "TRS_RTE": "Bloor-Danforth - TTC", "RTE_TYPE": "RT", "PROV": "ON", "US_RAILCO": null, "US_STP": null, "US_STATE": null, "CR": 0, "LRT": 0, "RT": 1, "CODE": 1376, "FEATURE": "TRANSIT LINE - TUNNEL", "RL_ID": 61246 }, "geometry": { "type": "LineString", "coordinates": [ [ -79.385544, 43.670506, 0.0 ], [ -79.385695, 43.670532, 0.0 ], [ -79.38598, 43.670612, 0.0 ], [ -79.386258, 43.670723, 0.0 ], [ -79.386558, 43.670839, 0.0 ], [ -79.386756, 43.670966, 0.0 ], [ -79.386953, 43.671093, 0.0 ], [ -79.387063, 43.671119, 0.0 ], [ -79.387109, 43.671113, 0.0 ], [ -79.389816, 43.670557, 0.0 ], [ -79.390879, 43.670334, 0.0 ], [ -79.392086, 43.670075, 0.0 ], [ -79.39448, 43.669605, 0.0 ], [ -79.394547, 43.66958, 0.0 ], [ -79.394605, 43.669527, 0.0 ], [ -79.3947, 43.669395, 0.0 ], [ -79.394818, 43.66922, 0.0 ], [ -79.394891, 43.669083, 0.0 ], [ -79.394971, 43.668929, 0.0 ], [ -79.39501, 43.668876, 0.0 ] ] } },
{ "type": "Feature", "properties": { "OWNER": "TTC", "CARTO": 13, "ACCESS1": null, "ACCESS2": null, "ACCESS3": null, "TRS_RTE": "Yonge-University-Spadina - TTC", "RTE_TYPE": "RT", "PROV": "ON", "US_RAILCO": null, "US_STP": null, "US_STATE": null, "CR": 0, "LRT": 0, "RT": 1, "CODE": 1376, "FEATURE": "TRANSIT LINE - TUNNEL", "RL_ID": 61251 }, "geometry": { "type": "LineString", "coordinates": [ [ -79.410929, 43.761541, 0.0 ], [ -79.410733, 43.760761, 0.0 ], [ -79.410533, 43.759946, 0.0 ], [ -79.410316, 43.759091, 0.0 ], [ -79.410086, 43.75823, 0.0 ], [ -79.409551, 43.756325, 0.0 ], [ -79.408768, 43.753612, 0.0 ], [ -79.408583, 43.752795, 0.0 ], [ -79.408546, 43.752159, 0.0 ], [ -79.40843, 43.750182, 0.0 ], [ -79.40814, 43.748702, 0.0 ], [ -79.408092, 43.748468, 0.0 ], [ -79.407975, 43.748224, 0.0 ], [ -79.407843, 43.747969, 0.0 ], [ -79.40771, 43.747789, 0.0 ], [ -79.407564, 43.747598, 0.0 ], [ -79.407461, 43.747492, 0.0 ], [ -79.407329, 43.747343, 0.0 ], [ -79.407255, 43.747226, 0.0 ], [ -79.407152, 43.747141, 0.0 ], [ -79.407108, 43.747078, 0.0 ], [ -79.40705, 43.746982, 0.0 ], [ -79.406456, 43.744212, 0.0 ], [ -79.406433, 43.744106, 0.0 ], [ -79.405111, 43.737864, 0.0 ], [ -79.405111, 43.737769, 0.0 ], [ -79.405097, 43.737567, 0.0 ], [ -79.405082, 43.737418, 0.0 ], [ -79.405111, 43.737291, 0.0 ], [ -79.405186, 43.737154, 0.0 ], [ -79.405149, 43.736996, 0.0 ], [ -79.404938, 43.736074, 0.0 ], [ -79.404826, 43.735587, 0.0 ], [ -79.404504, 43.73416, 0.0 ], [ -79.404448, 43.733952, 0.0 ], [ -79.404278, 43.733689, 0.0 ], [ -79.404223, 43.733039, 0.0 ], [ -79.404195, 43.732868, 0.0 ], [ -79.403965, 43.732027, 0.0 ], [ -79.403943, 43.731919, 0.0 ], [ -79.403752, 43.731169, 0.0 ], [ -79.403684, 43.730907, 0.0 ], [ -79.403538, 43.730338, 0.0 ], [ -79.403448, 43.729967, 0.0 ], [ -79.403325, 43.729461, 0.0 ], [ -79.403258, 43.729199, 0.0 ], [ -79.403099, 43.728621, 0.0 ], [ -79.403032, 43.728359, 0.0 ], [ -79.402502, 43.726325, 0.0 ], [ -79.402334, 43.725699, 0.0 ], [ -79.401525, 43.72199, 0.0 ], [ -79.401343, 43.720907, 0.0 ], [ -79.401056, 43.719516, 0.0 ], [ -79.40017, 43.715478, 0.0 ], [ -79.40006, 43.714963, 0.0 ], [ -79.399983, 43.714584, 0.0 ], [ -79.399784, 43.713654, 0.0 ], [ -79.399762, 43.713537, 0.0 ], [ -79.399652, 43.713013, 0.0 ], [ -79.399509, 43.712318, 0.0 ], [ -79.39941, 43.711866, 0.0 ], [ -79.399256, 43.711108, 0.0 ], [ -79.399224, 43.710927, 0.0 ], [ -79.398937, 43.70959, 0.0 ], [ -79.398825, 43.709112, 0.0 ], [ -79.398626, 43.708217, 0.0 ], [ -79.398582, 43.707992, 0.0 ], [ -79.398305, 43.706754, 0.0 ], [ -79.398361, 43.706537, 0.0 ], [ -79.398403, 43.705636, 0.0 ], [ -79.398403, 43.705185, 0.0 ], [ -79.398369, 43.703916, 0.0 ] ] } },
{ "type": "Feature", "properties": { "OWNER": "TTC", "CARTO": 13, "ACCESS1": null, "ACCESS2": null, "ACCESS3": null, "TRS_RTE": "Bloor-Danforth - TTC", "RTE_TYPE": "RT", "PROV": "ON", "US_RAILCO": null, "US_STP": null, "US_STATE": null, "CR": 0, "LRT": 0, "RT": 1, "CODE": 961, "FEATURE": "TRANSIT LINE", "RL_ID": 61253 }, "geometry": { "type": "LineString", "coordinates": [ [ -79.52855, 43.643347, 0.0 ], [ -79.528635, 43.643246, 0.0 ], [ -79.528707, 43.643164, 0.0 ], [ -79.528774, 43.643105, 0.0 ], [ -79.528846, 43.64304, 0.0 ], [ -79.528978, 43.642926, 0.0 ], [ -79.532203, 43.640221, 0.0 ], [ -79.533142, 43.639485, 0.0 ], [ -79.534181, 43.63868, 0.0 ], [ -79.534571, 43.638409, 0.0 ], [ -79.534852, 43.638202, 0.0 ], [ -79.536217, 43.637077, 0.0 ], [ -79.536585, 43.636736, 0.0 ], [ -79.536721, 43.636591, 0.0 ], [ -79.536946, 43.636344, 0.0 ], [ -79.537092, 43.636205, 0.0 ], [ -79.537696, 43.635687, 0.0 ] ] } },
{ "type": "Feature", "properties": { "OWNER": "TTC", "CARTO": 13, "ACCESS1": null, "ACCESS2": null, "ACCESS3": null, "TRS_RTE": "Bloor-Danforth - TTC", "RTE_TYPE": "RT", "PROV": "ON", "US_RAILCO": null, "US_STP": null, "US_STATE": null, "CR": 0, "LRT": 0, "RT": 1, "CODE": 1376, "FEATURE": "TRANSIT LINE - TUNNEL", "RL_ID": 61254 }, "geometry": { "type": "LineString", "coordinates": [ [ -79.519998, 43.646382, 0.0 ], [ -79.520953, 43.646185, 0.0 ], [ -79.523812, 43.645557, 0.0 ], [ -79.526239, 43.644976, 0.0 ], [ -79.526274, 43.644968, 0.0 ], [ -79.526747, 43.644862, 0.0 ], [ -79.526946, 43.644807, 0.0 ], [ -79.527159, 43.644723, 0.0 ] ] } },
{ "type": "Feature", "properties": { "OWNER": "TTC", "CARTO": 13, "ACCESS1": null, "ACCESS2": null, "ACCESS3": null, "TRS_RTE": "Sheppard - TTC", "RTE_TYPE": "RT", "PROV": "ON", "US_RAILCO": null, "US_STP": null, "US_STATE": null, "CR": 0, "LRT": 0, "RT": 1, "CODE": 1376, "FEATURE": "TRANSIT LINE - TUNNEL", "RL_ID": 61255 }, "geometry": { "type": "LineString", "coordinates": [ [ -79.368305, 43.770998, 0.0 ], [ -79.368299, 43.770999, 0.0 ], [ -79.367445, 43.771186, 0.0 ], [ -79.366565, 43.771377, 0.0 ], [ -79.366291, 43.771416, 0.0 ], [ -79.366043, 43.771452, 0.0 ], [ -79.365999, 43.771458, 0.0 ], [ -79.365564, 43.771514, 0.0 ], [ -79.364492, 43.771625, 0.0 ], [ -79.364122, 43.771663, 0.0 ], [ -79.363736, 43.771706, 0.0 ], [ -79.362421, 43.771853, 0.0 ], [ -79.361526, 43.771961, 0.0 ], [ -79.361365, 43.771977, 0.0 ], [ -79.360906, 43.772072, 0.0 ], [ -79.358628, 43.772566, 0.0 ], [ -79.356072, 43.77311, 0.0 ], [ -79.35332, 43.773727, 0.0 ], [ -79.349693, 43.774497, 0.0 ], [ -79.346995, 43.775076, 0.0 ], [ -79.345469, 43.775415, 0.0 ] ] } },
{ "type": "Feature", "properties": { "OWNER": "TTC", "CARTO": 13, "ACCESS1": null, "ACCESS2": null, "ACCESS3": null, "TRS_RTE": "Yonge-University-Spadina - TTC", "RTE_TYPE": "RT", "PROV": "ON", "US_RAILCO": null, "US_STP": null, "US_STATE": null, "CR": 0, "LRT": 0, "RT": 1, "CODE": 1376, "FEATURE": "TRANSIT LINE - TUNNEL", "RL_ID": 61257 }, "geometry": { "type": "LineString", "coordinates": [ [ -79.395679, 43.692614, 0.0 ], [ -79.395361, 43.691574, 0.0 ], [ -79.395331, 43.691341, 0.0 ], [ -79.394859, 43.690534, 0.0 ], [ -79.394155, 43.689494, 0.0 ], [ -79.393832, 43.68909, 0.0 ], [ -79.393655, 43.688772, 0.0 ], [ -79.393334, 43.688265, 0.0 ], [ -79.393039, 43.687583, 0.0 ], [ -79.392481, 43.686351, 0.0 ], [ -79.391953, 43.685183, 0.0 ], [ -79.391424, 43.683994, 0.0 ], [ -79.390954, 43.682932, 0.0 ], [ -79.390417, 43.681569, 0.0 ], [ -79.390381, 43.681476, 0.0 ], [ -79.390365, 43.681437, 0.0 ], [ -79.389795, 43.679946, 0.0 ] ] } },
{ "type": "Feature", "properties": { "OWNER": "TTC", "CARTO": 13, "ACCESS1": null, "ACCESS2": null, "ACCESS3": null, "TRS_RTE": "Yonge-University-Spadina - TTC", "RTE_TYPE": "RT", "PROV": "ON", "US_RAILCO": null, "US_STP": null, "US_STATE": null, "CR": 0, "LRT": 0, "RT": 1, "CODE": 961, "FEATURE": "TRANSIT LINE", "RL_ID": 61258 }, "geometry": { "type": "LineString", "coordinates": [ [ -79.39813, 43.700311, 0.0 ], [ -79.398094, 43.699797, 0.0 ], [ -79.398027, 43.699499, 0.0 ], [ -79.397912, 43.699165, 0.0 ], [ -79.397653, 43.698639, 0.0 ], [ -79.397325, 43.698054, 0.0 ], [ -79.396693, 43.696924, 0.0 ], [ -79.396517, 43.696552, 0.0 ], [ -79.396362, 43.695984, 0.0 ] ] } },
{ "type": "Feature", "properties": { "OWNER": "TTC", "CARTO": 13, "ACCESS1": null, "ACCESS2": null, "ACCESS3": null, "TRS_RTE": "Yonge-University-Spadina - TTC", "RTE_TYPE": "RT", "PROV": "ON", "US_RAILCO": null, "US_STP": null, "US_STATE": null, "CR": 0, "LRT": 0, "RT": 1, "CODE": 961, "FEATURE": "TRANSIT LINE", "RL_ID": 61259 }, "geometry": { "type": "LineString", "coordinates": [ [ -79.389795, 43.679946, 0.0 ], [ -79.389264, 43.678593, 0.0 ], [ -79.388739, 43.677267, 0.0 ], [ -79.388589, 43.676913, 0.0 ], [ -79.388092, 43.675614, 0.0 ], [ -79.387992, 43.675378, 0.0 ], [ -79.387867, 43.675135, 0.0 ], [ -79.387716, 43.674881, 0.0 ], [ -79.387577, 43.67469, 0.0 ], [ -79.387263, 43.674315, 0.0 ], [ -79.386959, 43.673957, 0.0 ], [ -79.386722, 43.673669, 0.0 ], [ -79.386529, 43.673417, 0.0 ], [ -79.386229, 43.672961, 0.0 ] ] } },
{ "type": "Feature", "properties": { "OWNER": "TTC", "CARTO": 13, "ACCESS1": null, "ACCESS2": null, "ACCESS3": null, "TRS_RTE": "Yonge-University-Spadina - TTC", "RTE_TYPE": "RT", "PROV": "ON", "US_RAILCO": null, "US_STP": null, "US_STATE": null, "CR": 0, "LRT": 0, "RT": 1, "CODE": 1376, "FEATURE": "TRANSIT LINE - TUNNEL", "RL_ID": 61260 }, "geometry": { "type": "LineString", "coordinates": [ [ -79.386229, 43.672961, 0.0 ], [ -79.386112, 43.672768, 0.0 ], [ -79.385994, 43.672514, 0.0 ], [ -79.385965, 43.672217, 0.0 ], [ -79.385935, 43.671941, 0.0 ], [ -79.385906, 43.671644, 0.0 ], [ -79.385544, 43.670506, 0.0 ] ] } },
{ "type": "Feature", "properties": { "OWNER": "TTC", "CARTO": 13, "ACCESS1": null, "ACCESS2": null, "ACCESS3": null, "TRS_RTE": "Yonge-University-Spadina - TTC", "RTE_TYPE": "RT", "PROV": "ON", "US_RAILCO": null, "US_STP": null, "US_STATE": null, "CR": 0, "LRT": 0, "RT": 1, "CODE": 1376, "FEATURE": "TRANSIT LINE - TUNNEL", "RL_ID": 61261 }, "geometry": { "type": "LineString", "coordinates": [ [ -79.436663, 43.700809, 0.0 ], [ -79.436483, 43.700355, 0.0 ], [ -79.434512, 43.695373, 0.0 ], [ -79.434409, 43.695245, 0.0 ], [ -79.434292, 43.695118, 0.0 ], [ -79.434218, 43.695054, 0.0 ], [ -79.43285, 43.69432, 0.0 ], [ -79.431924, 43.693831, 0.0 ], [ -79.431747, 43.693735, 0.0 ], [ -79.431556, 43.693597, 0.0 ], [ -79.430556, 43.692884, 0.0 ], [ -79.429997, 43.692501, 0.0 ], [ -79.429041, 43.691724, 0.0 ], [ -79.428673, 43.691448, 0.0 ], [ -79.428526, 43.691341, 0.0 ], [ -79.42835, 43.691235, 0.0 ], [ -79.428114, 43.691161, 0.0 ], [ -79.427791, 43.691075, 0.0 ], [ -79.427511, 43.691054, 0.0 ], [ -79.426084, 43.691012, 0.0 ], [ -79.42507, 43.690927, 0.0 ], [ -79.424231, 43.690852, 0.0 ], [ -79.423628, 43.690778, 0.0 ], [ -79.422996, 43.690724, 0.0 ], [ -79.422422, 43.690629, 0.0 ], [ -79.421789, 43.690522, 0.0 ], [ -79.421407, 43.690448, 0.0 ], [ -79.421142, 43.690352, 0.0 ], [ -79.420819, 43.690256, 0.0 ], [ -79.42048, 43.690118, 0.0 ], [ -79.420039, 43.689927, 0.0 ], [ -79.419466, 43.689693, 0.0 ], [ -79.418995, 43.689469, 0.0 ], [ -79.418583, 43.689267, 0.0 ], [ -79.418215, 43.689076, 0.0 ], [ -79.417936, 43.688895, 0.0 ], [ -79.417671, 43.688703, 0.0 ], [ -79.41745, 43.688533, 0.0 ], [ -79.417303, 43.688416, 0.0 ], [ -79.417127, 43.688267, 0.0 ], [ -79.416994, 43.688118, 0.0 ], [ -79.416892, 43.687969, 0.0 ], [ -79.416789, 43.68781, 0.0 ], [ -79.416694, 43.687613, 0.0 ], [ -79.415357, 43.684009, 0.0 ], [ -79.41526, 43.683749, 0.0 ], [ -79.415244, 43.683608, 0.0 ], [ -79.4152, 43.683438, 0.0 ], [ -79.415185, 43.683353, 0.0 ], [ -79.415082, 43.683225, 0.0 ], [ -79.414994, 43.683151, 0.0 ], [ -79.414891, 43.683108, 0.0 ], [ -79.414782, 43.683101, 0.0 ], [ -79.412392, 43.682712, 0.0 ], [ -79.41142, 43.682534, 0.0 ], [ -79.411214, 43.682512, 0.0 ], [ -79.411082, 43.682491, 0.0 ], [ -79.410935, 43.682449, 0.0 ], [ -79.410729, 43.682342, 0.0 ], [ -79.410552, 43.682257, 0.0 ], [ -79.410302, 43.68214, 0.0 ], [ -79.410081, 43.681991, 0.0 ], [ -79.409964, 43.681885, 0.0 ], [ -79.409879, 43.681746, 0.0 ], [ -79.409877, 43.681744, 0.0 ], [ -79.409397, 43.680609, 0.0 ], [ -79.40899, 43.679568, 0.0 ], [ -79.408746, 43.678934, 0.0 ], [ -79.408116, 43.677431, 0.0 ], [ -79.407475, 43.675864, 0.0 ], [ -79.407328, 43.67551, 0.0 ], [ -79.407314, 43.675478, 0.0 ], [ -79.4073, 43.675445, 0.0 ], [ -79.407277, 43.67539, 0.0 ], [ -79.407067, 43.674886, 0.0 ], [ -79.406022, 43.672198, 0.0 ], [ -79.405278, 43.670314, 0.0 ], [ -79.404742, 43.66901, 0.0 ], [ -79.404109, 43.667408, 0.0 ], [ -79.40405, 43.667366, 0.0 ], [ -79.403865, 43.667249, 0.0 ], [ -79.403727, 43.667133, 0.0 ], [ -79.403509, 43.667058, 0.0 ] ] } },
{ "type": "Feature", "properties": { "OWNER": "TTC", "CARTO": 13, "ACCESS1": null, "ACCESS2": null, "ACCESS3": null, "TRS_RTE": "Yonge-University-Spadina - TTC", "RTE_TYPE": "RT", "PROV": "ON", "US_RAILCO": null, "US_STP": null, "US_STATE": null, "CR": 0, "LRT": 0, "RT": 1, "CODE": 961, "FEATURE": "TRANSIT LINE", "RL_ID": 61262 }, "geometry": { "type": "LineString", "coordinates": [ [ -79.456189, 43.741553, 0.0 ], [ -79.454372, 43.739878, 0.0 ], [ -79.453294, 43.738879, 0.0 ], [ -79.452045, 43.73773, 0.0 ], [ -79.451713, 43.737427, 0.0 ], [ -79.451642, 43.737358, 0.0 ] ] } },
{ "type": "Feature", "properties": { "OWNER": "TTC", "CARTO": 13, "ACCESS1": null, "ACCESS2": null, "ACCESS3": null, "TRS_RTE": "Yonge-University-Spadina - TTC", "RTE_TYPE": "RT", "PROV": "ON", "US_RAILCO": null, "US_STP": null, "US_STATE": null, "CR": 0, "LRT": 0, "RT": 1, "CODE": 91, "FEATURE": "TRANSIT LINE - BRIDGE", "RL_ID": 61263 }, "geometry": { "type": "LineString", "coordinates": [ [ -79.449178, 43.731864, 0.0 ], [ -79.448698, 43.729258, 0.0 ] ] } },
{ "type": "Feature", "properties": { "OWNER": "TTC", "CARTO": 13, "ACCESS1": null, "ACCESS2": null, "ACCESS3": null, "TRS_RTE": "Yonge-University-Spadina - TTC", "RTE_TYPE": "RT", "PROV": "ON", "US_RAILCO": null, "US_STP": null, "US_STATE": null, "CR": 0, "LRT": 0, "RT": 1, "CODE": 1376, "FEATURE": "TRANSIT LINE - TUNNEL", "RL_ID": 61264 }, "geometry": { "type": "LineString", "coordinates": [ [ -79.462843, 43.750006, 0.0 ], [ -79.462629, 43.748957, 0.0 ], [ -79.462224, 43.747952, 0.0 ], [ -79.46148, 43.746814, 0.0 ], [ -79.460902, 43.746097, 0.0 ], [ -79.460035, 43.745191, 0.0 ], [ -79.458565, 43.743739, 0.0 ] ] } },
{ "type": "Feature", "properties": { "OWNER": "TTC", "CARTO": 13, "ACCESS1": null, "ACCESS2": null, "ACCESS3": null, "TRS_RTE": "Bloor-Danforth - TTC", "RTE_TYPE": "RT", "PROV": "ON", "US_RAILCO": null, "US_STP": null, "US_STATE": null, "CR": 0, "LRT": 0, "RT": 1, "CODE": 1376, "FEATURE": "TRANSIT LINE - TUNNEL", "RL_ID": 61265 }, "geometry": { "type": "LineString", "coordinates": [ [ -79.403509, 43.667058, 0.0 ], [ -79.405583, 43.666646, 0.0 ], [ -79.406751, 43.666399, 0.0 ], [ -79.407557, 43.666242, 0.0 ], [ -79.408759, 43.666011, 0.0 ], [ -79.410126, 43.665745, 0.0 ], [ -79.410935, 43.665586, 0.0 ], [ -79.411355, 43.665504, 0.0 ], [ -79.412596, 43.665246, 0.0 ], [ -79.413779, 43.664997, 0.0 ], [ -79.414939, 43.664764, 0.0 ], [ -79.416123, 43.664523, 0.0 ], [ -79.417329, 43.66429, 0.0 ], [ -79.41857, 43.664041, 0.0 ], [ -79.419018, 43.663975, 0.0 ], [ -79.422269, 43.663301, 0.0 ], [ -79.423452, 43.663019, 0.0 ], [ -79.424819, 43.662745, 0.0 ], [ -79.425853, 43.662512, 0.0 ], [ -79.426449, 43.662385, 0.0 ], [ -79.427025, 43.662263, 0.0 ], [ -79.42822, 43.662022, 0.0 ], [ -79.429644, 43.661722, 0.0 ], [ -79.430632, 43.661523, 0.0 ], [ -79.431862, 43.661282, 0.0 ], [ -79.433137, 43.661016, 0.0 ], [ -79.434355, 43.660758, 0.0 ], [ -79.434949, 43.660632, 0.0 ], [ -79.435562, 43.660501, 0.0 ], [ -79.436688, 43.660251, 0.0 ], [ -79.437836, 43.660031, 0.0 ], [ -79.438887, 43.659831, 0.0 ], [ -79.439961, 43.659619, 0.0 ], [ -79.44107, 43.659383, 0.0 ], [ -79.441821, 43.659257, 0.0 ], [ -79.44292, 43.659008, 0.0 ], [ -79.445497, 43.658497, 0.0 ], [ -79.445506, 43.658495, 0.0 ], [ -79.447986, 43.658003, 0.0 ], [ -79.449192, 43.657766, 0.0 ], [ -79.450254, 43.657562, 0.0 ], [ -79.450481, 43.657519, 0.0 ], [ -79.450537, 43.65751, 0.0 ], [ -79.450695, 43.657477, 0.0 ], [ -79.45075, 43.657465, 0.0 ], [ -79.450777, 43.657459, 0.0 ], [ -79.450794, 43.657456, 0.0 ], [ -79.452721, 43.657045, 0.0 ], [ -79.455115, 43.656531, 0.0 ] ] } },
{ "type": "Feature", "properties": { "OWNER": "TTC", "CARTO": 13, "ACCESS1": null, "ACCESS2": null, "ACCESS3": null, "TRS_RTE": "Bloor-Danforth - TTC", "RTE_TYPE": "RT", "PROV": "ON", "US_RAILCO": null, "US_STP": null, "US_STATE": null, "CR": 0, "LRT": 0, "RT": 1, "CODE": 961, "FEATURE": "TRANSIT LINE", "RL_ID": 61374 }, "geometry": { "type": "LineString", "coordinates": [ [ -79.455115, 43.656531, 0.0 ], [ -79.457759, 43.655945, 0.0 ] ] } },
{ "type": "Feature", "properties": { "OWNER": "TTC", "CARTO": 13, "ACCESS1": null, "ACCESS2": null, "ACCESS3": null, "TRS_RTE": "Bloor-Danforth - TTC", "RTE_TYPE": "RT", "PROV": "ON", "US_RAILCO": null, "US_STP": null, "US_STATE": null, "CR": 0, "LRT": 0, "RT": 1, "CODE": 1376, "FEATURE": "TRANSIT LINE - TUNNEL", "RL_ID": 61267 }, "geometry": { "type": "LineString", "coordinates": [ [ -79.458486, 43.655786, 0.0 ], [ -79.461323, 43.655174, 0.0 ], [ -79.463975, 43.654611, 0.0 ], [ -79.465531, 43.654256, 0.0 ], [ -79.467097, 43.65385, 0.0 ], [ -79.468854, 43.65342, 0.0 ] ] } },
{ "type": "Feature", "properties": { "OWNER": "TTC", "CARTO": 13, "ACCESS1": null, "ACCESS2": null, "ACCESS3": null, "TRS_RTE": "Bloor-Danforth - TTC", "RTE_TYPE": "RT", "PROV": "ON", "US_RAILCO": null, "US_STP": null, "US_STATE": null, "CR": 0, "LRT": 0, "RT": 1, "CODE": 961, "FEATURE": "TRANSIT LINE", "RL_ID": 61268 }, "geometry": { "type": "LineString", "coordinates": [ [ -79.468854, 43.65342, 0.0 ], [ -79.470067, 43.653108, 0.0 ] ] } },
{ "type": "Feature", "properties": { "OWNER": "TTC", "CARTO": 13, "ACCESS1": null, "ACCESS2": null, "ACCESS3": null, "TRS_RTE": "Bloor-Danforth - TTC", "RTE_TYPE": "RT", "PROV": "ON", "US_RAILCO": null, "US_STP": null, "US_STATE": null, "CR": 0, "LRT": 0, "RT": 1, "CODE": 91, "FEATURE": "TRANSIT LINE - BRIDGE", "RL_ID": 61269 }, "geometry": { "type": "LineString", "coordinates": [ [ -79.470067, 43.653108, 0.0 ], [ -79.470351, 43.65304, 0.0 ] ] } },
{ "type": "Feature", "properties": { "OWNER": "TTC", "CARTO": 13, "ACCESS1": null, "ACCESS2": null, "ACCESS3": null, "TRS_RTE": "Bloor-Danforth - TTC", "RTE_TYPE": "RT", "PROV": "ON", "US_RAILCO": null, "US_STP": null, "US_STATE": null, "CR": 0, "LRT": 0, "RT": 1, "CODE": 961, "FEATURE": "TRANSIT LINE", "RL_ID": 61270 }, "geometry": { "type": "LineString", "coordinates": [ [ -79.470351, 43.65304, 0.0 ], [ -79.471913, 43.652647, 0.0 ] ] } },
{ "type": "Feature", "properties": { "OWNER": "TTC", "CARTO": 13, "ACCESS1": null, "ACCESS2": null, "ACCESS3": null, "TRS_RTE": "Bloor-Danforth - TTC", "RTE_TYPE": "RT", "PROV": "ON", "US_RAILCO": null, "US_STP": null, "US_STATE": null, "CR": 0, "LRT": 0, "RT": 1, "CODE": 1376, "FEATURE": "TRANSIT LINE - TUNNEL", "RL_ID": 61271 }, "geometry": { "type": "LineString", "coordinates": [ [ -79.471913, 43.652647, 0.0 ], [ -79.474277, 43.652185, 0.0 ], [ -79.475382, 43.651929, 0.0 ], [ -79.4765, 43.651682, 0.0 ], [ -79.477202, 43.651521, 0.0 ], [ -79.477878, 43.651366, 0.0 ], [ -79.479256, 43.65105, 0.0 ], [ -79.480621, 43.650734, 0.0 ], [ -79.481944, 43.650438, 0.0 ], [ -79.483172, 43.650182, 0.0 ], [ -79.484659, 43.649846, 0.0 ], [ -79.484768, 43.649767, 0.0 ], [ -79.484836, 43.649668, 0.0 ], [ -79.484986, 43.649412, 0.0 ], [ -79.485123, 43.649254, 0.0 ], [ -79.485382, 43.649017, 0.0 ], [ -79.485628, 43.6488, 0.0 ], [ -79.48586, 43.648612, 0.0 ], [ -79.486132, 43.648444, 0.0 ], [ -79.486419, 43.648316, 0.0 ], [ -79.486855, 43.648178, 0.0 ], [ -79.487278, 43.648089, 0.0 ], [ -79.487824, 43.64801, 0.0 ], [ -79.488247, 43.648, 0.0 ], [ -79.488588, 43.64799, 0.0 ], [ -79.489038, 43.64802, 0.0 ], [ -79.489434, 43.648099, 0.0 ], [ -79.490498, 43.648415, 0.0 ], [ -79.491244, 43.648669, 0.0 ] ] } },
{ "type": "Feature", "properties": { "OWNER": "TTC", "CARTO": 13, "ACCESS1": null, "ACCESS2": null, "ACCESS3": null, "TRS_RTE": "Bloor-Danforth - TTC", "RTE_TYPE": "RT", "PROV": "ON", "US_RAILCO": null, "US_STP": null, "US_STATE": null, "CR": 0, "LRT": 0, "RT": 1, "CODE": 91, "FEATURE": "TRANSIT LINE - BRIDGE", "RL_ID": 61272 }, "geometry": { "type": "LineString", "coordinates": [ [ -79.491244, 43.648669, 0.0 ], [ -79.492929, 43.649294, 0.0 ] ] } },
{ "type": "Feature", "properties": { "OWNER": "TTC", "CARTO": 13, "ACCESS1": null, "ACCESS2": null, "ACCESS3": null, "TRS_RTE": "Bloor-Danforth - TTC", "RTE_TYPE": "RT", "PROV": "ON", "US_RAILCO": null, "US_STP": null, "US_STATE": null, "CR": 0, "LRT": 0, "RT": 1, "CODE": 961, "FEATURE": "TRANSIT LINE", "RL_ID": 61273 }, "geometry": { "type": "LineString", "coordinates": [ [ -79.515992, 43.647289, 0.0 ], [ -79.516232, 43.647234, 0.0 ], [ -79.517529, 43.646945, 0.0 ] ] } },
{ "type": "Feature", "properties": { "OWNER": "TTC", "CARTO": 13, "ACCESS1": null, "ACCESS2": null, "ACCESS3": null, "TRS_RTE": "Bloor-Danforth - TTC", "RTE_TYPE": "RT", "PROV": "ON", "US_RAILCO": null, "US_STP": null, "US_STATE": null, "CR": 0, "LRT": 0, "RT": 1, "CODE": 91, "FEATURE": "TRANSIT LINE - BRIDGE", "RL_ID": 61274 }, "geometry": { "type": "LineString", "coordinates": [ [ -79.517529, 43.646945, 0.0 ], [ -79.518587, 43.646699, 0.0 ] ] } },
{ "type": "Feature", "properties": { "OWNER": "TTC", "CARTO": 13, "ACCESS1": null, "ACCESS2": null, "ACCESS3": null, "TRS_RTE": "Bloor-Danforth - TTC", "RTE_TYPE": "RT", "PROV": "ON", "US_RAILCO": null, "US_STP": null, "US_STATE": null, "CR": 0, "LRT": 0, "RT": 1, "CODE": 961, "FEATURE": "TRANSIT LINE", "RL_ID": 61276 }, "geometry": { "type": "LineString", "coordinates": [ [ -79.518587, 43.646699, 0.0 ], [ -79.518942, 43.646617, 0.0 ], [ -79.519998, 43.646382, 0.0 ] ] } },
{ "type": "Feature", "properties": { "OWNER": "TTC", "CARTO": 13, "ACCESS1": null, "ACCESS2": null, "ACCESS3": null, "TRS_RTE": "Bloor-Danforth - TTC", "RTE_TYPE": "RT", "PROV": "ON", "US_RAILCO": null, "US_STP": null, "US_STATE": null, "CR": 0, "LRT": 0, "RT": 1, "CODE": 961, "FEATURE": "TRANSIT LINE", "RL_ID": 61277 }, "geometry": { "type": "LineString", "coordinates": [ [ -79.527159, 43.644723, 0.0 ], [ -79.527388, 43.644601, 0.0 ], [ -79.527493, 43.644533, 0.0 ], [ -79.527613, 43.644447, 0.0 ], [ -79.527761, 43.64433, 0.0 ], [ -79.527849, 43.644248, 0.0 ], [ -79.527947, 43.644148, 0.0 ], [ -79.528075, 43.643999, 0.0 ], [ -79.52826, 43.643745, 0.0 ] ] } },
{ "type": "Feature", "properties": { "OWNER": "TTC", "CARTO": 13, "ACCESS1": null, "ACCESS2": null, "ACCESS3": null, "TRS_RTE": "Bloor-Danforth - TTC", "RTE_TYPE": "RT", "PROV": "ON", "US_RAILCO": null, "US_STP": null, "US_STATE": null, "CR": 0, "LRT": 0, "RT": 1, "CODE": 91, "FEATURE": "TRANSIT LINE - BRIDGE", "RL_ID": 61278 }, "geometry": { "type": "LineString", "coordinates": [ [ -79.52826, 43.643745, 0.0 ], [ -79.52855, 43.643347, 0.0 ] ] } },
{ "type": "Feature", "properties": { "OWNER": "TTC", "CARTO": 13, "ACCESS1": null, "ACCESS2": null, "ACCESS3": null, "TRS_RTE": "Bloor-Danforth - TTC", "RTE_TYPE": "RT", "PROV": "ON", "US_RAILCO": null, "US_STP": null, "US_STATE": null, "CR": 0, "LRT": 0, "RT": 1, "CODE": 1376, "FEATURE": "TRANSIT LINE - TUNNEL", "RL_ID": 61279 }, "geometry": { "type": "LineString", "coordinates": [ [ -79.385544, 43.670506, 0.0 ], [ -79.384117, 43.670484, 0.0 ], [ -79.383116, 43.671056, 0.0 ], [ -79.380478, 43.671484, 0.0 ], [ -79.37963, 43.671657, 0.0 ], [ -79.377112, 43.672123, 0.0 ], [ -79.376226, 43.67224, 0.0 ], [ -79.373226, 43.672286, 0.0 ], [ -79.372388, 43.672252, 0.0 ], [ -79.371936, 43.672284, 0.0 ], [ -79.3716, 43.672337, 0.0 ] ] } },
{ "type": "Feature", "properties": { "OWNER": "TTC", "CARTO": 13, "ACCESS1": null, "ACCESS2": null, "ACCESS3": null, "TRS_RTE": "Bloor-Danforth - TTC", "RTE_TYPE": "RT", "PROV": "ON", "US_RAILCO": null, "US_STP": null, "US_STATE": null, "CR": 0, "LRT": 0, "RT": 1, "CODE": 91, "FEATURE": "TRANSIT LINE - BRIDGE", "RL_ID": 61280 }, "geometry": { "type": "LineString", "coordinates": [ [ -79.3716, 43.672337, 0.0 ], [ -79.37131, 43.672397, 0.0 ], [ -79.371015, 43.672481, 0.0 ], [ -79.37082, 43.672553, 0.0 ], [ -79.370611, 43.672645, 0.0 ], [ -79.370319, 43.672794, 0.0 ], [ -79.369878, 43.673047, 0.0 ] ] } },
{ "type": "Feature", "properties": { "OWNER": "TTC", "CARTO": 13, "ACCESS1": null, "ACCESS2": null, "ACCESS3": null, "TRS_RTE": "Bloor-Danforth - TTC", "RTE_TYPE": "RT", "PROV": "ON", "US_RAILCO": null, "US_STP": null, "US_STATE": null, "CR": 0, "LRT": 0, "RT": 1, "CODE": 1376, "FEATURE": "TRANSIT LINE - TUNNEL", "RL_ID": 61281 }, "geometry": { "type": "LineString", "coordinates": [ [ -79.369878, 43.673047, 0.0 ], [ -79.369318, 43.67335, 0.0 ], [ -79.368842, 43.673595, 0.0 ], [ -79.368404, 43.67386, 0.0 ], [ -79.367876, 43.674122, 0.0 ], [ -79.367071, 43.67452, 0.0 ], [ -79.366832, 43.674633, 0.0 ], [ -79.364711, 43.675062, 0.0 ], [ -79.364305, 43.675142, 0.0 ], [ -79.364278, 43.675147, 0.0 ], [ -79.364272, 43.675149, 0.0 ], [ -79.361826, 43.675628, 0.0 ], [ -79.361631, 43.675666, 0.0 ], [ -79.361456, 43.6757, 0.0 ], [ -79.360932, 43.67581, 0.0 ], [ -79.360458, 43.675902, 0.0 ], [ -79.360269, 43.67594, 0.0 ], [ -79.359959, 43.676003, 0.0 ], [ -79.359579, 43.676161, 0.0 ], [ -79.3593, 43.676322, 0.0 ], [ -79.359105, 43.676483, 0.0 ], [ -79.358993, 43.676584, 0.0 ], [ -79.358664, 43.676951, 0.0 ], [ -79.35852, 43.677128, 0.0 ], [ -79.358433, 43.677201, 0.0 ], [ -79.356719, 43.67746, 0.0 ], [ -79.355373, 43.677675, 0.0 ], [ -79.353398, 43.677971, 0.0 ], [ -79.352194, 43.678277, 0.0 ], [ -79.351614, 43.678394, 0.0 ], [ -79.350996, 43.678519, 0.0 ], [ -79.350327, 43.67866, 0.0 ], [ -79.349574, 43.678801, 0.0 ], [ -79.348515, 43.679002, 0.0 ], [ -79.347615, 43.679192, 0.0 ], [ -79.346314, 43.679466, 0.0 ], [ -79.345157, 43.679715, 0.0 ], [ -79.344346, 43.679887, 0.0 ], [ -79.339729, 43.68087, 0.0 ], [ -79.338612, 43.681069, 0.0 ], [ -79.337596, 43.681262, 0.0 ], [ -79.335151, 43.681749, 0.0 ], [ -79.33268, 43.682289, 0.0 ], [ -79.331506, 43.68256, 0.0 ], [ -79.330083, 43.682854, 0.0 ], [ -79.327475, 43.683419, 0.0 ], [ -79.323868, 43.684177, 0.0 ], [ -79.323149, 43.684331, 0.0 ], [ -79.321197, 43.68475, 0.0 ], [ -79.315554, 43.68599, 0.0 ], [ -79.313132, 43.68654, 0.0 ], [ -79.305505, 43.688183, 0.0 ], [ -79.303307, 43.68869, 0.0 ], [ -79.302019, 43.689024, 0.0 ], [ -79.301681, 43.689158, 0.0 ], [ -79.298679, 43.690464, 0.0 ], [ -79.295735, 43.691796, 0.0 ], [ -79.294759, 43.69223, 0.0 ], [ -79.292543, 43.693147, 0.0 ], [ -79.291553, 43.69354, 0.0 ], [ -79.291302, 43.693732, 0.0 ], [ -79.291087, 43.69388, 0.0 ] ] } },
{ "type": "Feature", "properties": { "OWNER": "TTC", "CARTO": 13, "ACCESS1": null, "ACCESS2": null, "ACCESS3": null, "TRS_RTE": "Yonge-University-Spadina - TTC", "RTE_TYPE": "RT", "PROV": "ON", "US_RAILCO": null, "US_STP": null, "US_STATE": null, "CR": 0, "LRT": 0, "RT": 1, "CODE": 961, "FEATURE": "TRANSIT LINE", "RL_ID": 61370 }, "geometry": { "type": "LineString", "coordinates": [ [ -79.398369, 43.703916, 0.0 ], [ -79.398274, 43.702486, 0.0 ], [ -79.398216, 43.701611, 0.0 ], [ -79.398212, 43.701548, 0.0 ], [ -79.39813, 43.700311, 0.0 ] ] } },
{ "type": "Feature", "properties": { "OWNER": "TTC", "CARTO": 13, "ACCESS1": null, "ACCESS2": null, "ACCESS3": null, "TRS_RTE": "Yonge-University-Spadina - TTC", "RTE_TYPE": "RT", "PROV": "ON", "US_RAILCO": null, "US_STP": null, "US_STATE": null, "CR": 0, "LRT": 0, "RT": 1, "CODE": 961, "FEATURE": "TRANSIT LINE", "RL_ID": 61371 }, "geometry": { "type": "LineString", "coordinates": [ [ -79.396362, 43.695984, 0.0 ], [ -79.39622, 43.695465, 0.0 ], [ -79.395679, 43.692614, 0.0 ] ] } },
{ "type": "Feature", "properties": { "OWNER": "TTC", "CARTO": 13, "ACCESS1": null, "ACCESS2": null, "ACCESS3": null, "TRS_RTE": "Yonge-University-Spadina - TTC", "RTE_TYPE": "RT", "PROV": "ON", "US_RAILCO": null, "US_STP": null, "US_STATE": null, "CR": 0, "LRT": 0, "RT": 1, "CODE": 961, "FEATURE": "TRANSIT LINE", "RL_ID": 61372 }, "geometry": { "type": "LineString", "coordinates": [ [ -79.451642, 43.737358, 0.0 ], [ -79.451343, 43.737095, 0.0 ], [ -79.451104, 43.736818, 0.0 ], [ -79.450929, 43.736586, 0.0 ], [ -79.450784, 43.736337, 0.0 ], [ -79.450642, 43.736007, 0.0 ], [ -79.450124, 43.734579, 0.0 ], [ -79.449596, 43.733093, 0.0 ], [ -79.449178, 43.731864, 0.0 ] ] } },
{ "type": "Feature", "properties": { "OWNER": "TTC", "CARTO": 13, "ACCESS1": null, "ACCESS2": null, "ACCESS3": null, "TRS_RTE": "Yonge-University-Spadina - TTC", "RTE_TYPE": "RT", "PROV": "ON", "US_RAILCO": null, "US_STP": null, "US_STATE": null, "CR": 0, "LRT": 0, "RT": 1, "CODE": 961, "FEATURE": "TRANSIT LINE", "RL_ID": 61373 }, "geometry": { "type": "LineString", "coordinates": [ [ -79.458565, 43.743739, 0.0 ], [ -79.45715, 43.742464, 0.0 ], [ -79.456558, 43.741903, 0.0 ], [ -79.456291, 43.741647, 0.0 ], [ -79.45619, 43.741553, 0.0 ], [ -79.456189, 43.741553, 0.0 ] ] } },
{ "type": "Feature", "properties": { "OWNER": "TTC", "CARTO": 13, "ACCESS1": null, "ACCESS2": null, "ACCESS3": null, "TRS_RTE": "Scarborough RT - TTC", "RTE_TYPE": "RT", "PROV": "ON", "US_RAILCO": null, "US_STP": null, "US_STATE": null, "CR": 0, "LRT": 0, "RT": 1, "CODE": 961, "FEATURE": "TRANSIT LINE", "RL_ID": 61287 }, "geometry": { "type": "LineString", "coordinates": [ [ -79.264915, 43.732466, 0.0 ], [ -79.263969, 43.732683, 0.0 ], [ -79.263531, 43.732801, 0.0 ], [ -79.263214, 43.732919, 0.0 ], [ -79.263085, 43.733114, 0.0 ], [ -79.263138, 43.733547, 0.0 ], [ -79.265487, 43.738913, 0.0 ], [ -79.267874, 43.744617, 0.0 ], [ -79.269887, 43.749579, 0.0 ], [ -79.270024, 43.750021, 0.0 ] ] } }
]
}
